[{"OBJECT_NAME":"YAOGAN-30 10B","OBJECT_ID":"2021-055B","EPOCH":"2026-03-09T23:15:59.423328","MEAN_MOTION":15.02202929,"ECCENTRICITY":0.00050008,"INCLINATION":34.9962,"RA_OF_ASC_NODE":36.3507,"ARG_OF_PERICENTER":289.0618,"MEAN_ANOMALY":70.9548,"EPHEMERIS_TYPE":0,"CLASSIFICATION_TYPE":"U","NORAD_CAT_ID":48861,"ELEMENT_SET_NO":999,"REV_AT_EPOCH":25824,"BSTAR":0.00040429536,"MEAN_MOTION_DOT":5.411e-5,"MEAN_MOTION_DDOT":0},{"OBJECT_NAME":"STARLINK-34948","OBJECT_ID":"2025-175T","EPOCH":"2026-03-09T15:07:20.482752","MEAN_MOTION":15.05646323,"ECCENTRICITY":0.0003,"INCLINATION":97.6018,"RA_OF_ASC_NODE":302.6288,"ARG_OF_PERICENTER":82.1533,"MEAN_ANOMALY":278.0034,"EPHEMERIS_TYPE":0,"CLASSIFICATION_TYPE":"U","NORAD_CAT_ID":65191,"ELEMENT_SET_NO":999,"REV_AT_EPOCH":3263,"BSTAR":0.00023346,"MEAN_MOTION_DOT":3.309e-5,"MEAN_MOTION_DDOT":0}]
